{
  "type": "FeatureCollection",
  "features": [
    {
      "type": "Feature",
      "properties": {
        "norad_id": 36744,
        "name": "COMS 1",
        "group": "weather",
        "lat": 4.114150490359351,
        "lon": 148.2411157735956,
        "alt_km": 35787.78431289694,
        "timestamp": "2025-12-18T19:29:52.186897+00:00",
        "meta_object_name": "COMS 1",
        "meta_object_id": "2010-032A",
        "meta_epoch": "2025-12-17T19:45:51.581952",
        "meta_mean_motion": 1.00271279,
        "meta_eccentricity": 7.117e-05,
        "meta_inclination": 4.3524,
        "meta_ra_of_asc_node": 77.9414,
        "meta_arg_of_pericenter": 200.8351,
        "meta_mean_anomaly": 232.5533,
        "meta_ephemeris_type": 0,
        "meta_classification_type": "U",
        "meta_norad_cat_id": 36744,
        "meta_element_set_no": 999,
        "meta_rev_at_epoch": 4927,
        "meta_bstar": 0,
        "meta_mean_motion_dot": -3.23e-06,
        "meta_mean_motion_ddot": 0,
        "tle_line1": "1 36744U 10032A   25351.82351368 -.00000323  00000+0  00000+0 0  9999",
        "tle_line2": "2 36744   4.3524  77.9414 0000711 200.8351 232.5533  1.00271279 49278"
      },
      "geometry": {
        "type": "Point",
        "coordinates": [
          148.2411157735956,
          4.114150490359351
        ]
      }
    },
    {
      "type": "Feature",
      "properties": {
        "norad_id": 37214,
        "name": "FENGYUN 3B",
        "group": "weather",
        "lat": -12.74386755849965,
        "lon": 34.88416035508358,
        "alt_km": 831.8021329893536,
        "timestamp": "2025-12-18T19:29:52.186910+00:00",
        "meta_object_name": "FENGYUN 3B",
        "meta_object_id": "2010-059A",
        "meta_epoch": "2025-12-18T06:36:22.013856",
        "meta_mean_motion": 14.14791448,
        "meta_eccentricity": 0.00217815,
        "meta_inclination": 98.9905,
        "meta_ra_of_asc_node": 32.2914,
        "meta_arg_of_pericenter": 341.868,
        "meta_mean_anomaly": 150.9717,
        "meta_ephemeris_type": 0,
        "meta_classification_type": "U",
        "meta_norad_cat_id": 37214,
        "meta_element_set_no": 999,
        "meta_rev_at_epoch": 78184,
        "meta_bstar": 0.00013559178,
        "meta_mean_motion_dot": 2.16e-06,
        "meta_mean_motion_ddot": 0,
        "tle_line1": "1 37214U 10059A   25352.27525479  .00000216  00000+0  13559-3 0  9994",
        "tle_line2": "2 37214  98.9905  32.2914 0021781 341.8680 150.9717 14.14791448781840"
      },
      "geometry": {
        "type": "Point",
        "coordinates": [
          34.88416035508358,
          -12.74386755849965
        ]
      }
    },
    {
      "type": "Feature",
      "properties": {
        "norad_id": 37849,
        "name": "SUOMI NPP",
        "group": "weather",
        "lat": -67.3400226633401,
        "lon": -48.179036152903635,
        "alt_km": 835.9336889973802,
        "timestamp": "2025-12-18T19:29:52.186922+00:00",
        "meta_object_name": "SUOMI NPP",
        "meta_object_id": "2011-061A",
        "meta_epoch": "2025-12-17T23:31:21.474624",
        "meta_mean_motion": 14.19515682,
        "meta_eccentricity": 0.00023932,
        "meta_inclination": 98.7779,
        "meta_ra_of_asc_node": 289.2746,
        "meta_arg_of_pericenter": 111.1248,
        "meta_mean_anomaly": 249.0184,
        "meta_ephemeris_type": 0,
        "meta_classification_type": "U",
        "meta_norad_cat_id": 37849,
        "meta_element_set_no": 999,
        "meta_rev_at_epoch": 73273,
        "meta_bstar": 4.8615036e-05,
        "meta_mean_motion_dot": 5.8e-07,
        "meta_mean_motion_ddot": 0,
        "tle_line1": "1 37849U 11061A   25351.98010966  .00000058  00000+0  48615-4 0  9995",
        "tle_line2": "2 37849  98.7779 289.2746 0002393 111.1248 249.0184 14.19515682732735"
      },
      "geometry": {
        "type": "Point",
        "coordinates": [
          -48.179036152903635,
          -67.3400226633401
        ]
      }
    },
    {
      "type": "Feature",
      "properties": {
        "norad_id": 38552,
        "name": "METEOSAT-10 (MSG-3)",
        "group": "weather",
        "lat": -2.7885727881876132,
        "lon": 20.477521807818235,
        "alt_km": 35783.250802088274,
        "timestamp": "2025-12-18T19:29:52.186936+00:00",
        "meta_object_name": "METEOSAT-10 (MSG-3)",
        "meta_object_id": "2012-035B",
        "meta_epoch": "2025-12-18T01:18:41.683968",
        "meta_mean_motion": 1.00276329,
        "meta_eccentricity": 6.951e-05,
        "meta_inclination": 4.2406,
        "meta_ra_of_asc_node": 61.7102,
        "meta_arg_of_pericenter": 269.2855,
        "meta_mean_anomaly": 135.8514,
        "meta_ephemeris_type": 0,
        "meta_classification_type": "U",
        "meta_norad_cat_id": 38552,
        "meta_element_set_no": 999,
        "meta_rev_at_epoch": 4904,
        "meta_bstar": 0,
        "meta_mean_motion_dot": 1.7e-07,
        "meta_mean_motion_ddot": 0,
        "tle_line1": "1 38552U 12035B   25352.05464912  .00000017  00000+0  00000+0 0  9998",
        "tle_line2": "2 38552   4.2406  61.7102 0000695 269.2855 135.8514  1.00276329 49049"
      },
      "geometry": {
        "type": "Point",
        "coordinates": [
          20.477521807818235,
          -2.7885727881876132
        ]
      }
    },
    {
      "type": "Feature",
      "properties": {
        "norad_id": 38771,
        "name": "METOP-B",
        "group": "weather",
        "lat": -4.653411082718903,
        "lon": -138.0444392195569,
        "alt_km": 822.7671961009437,
        "timestamp": "2025-12-18T19:29:52.186948+00:00",
        "meta_object_name": "METOP-B",
        "meta_object_id": "2012-049A",
        "meta_epoch": "2025-12-18T05:07:01.391520",
        "meta_mean_motion": 14.21410467,
        "meta_eccentricity": 0.0003101,
        "meta_inclination": 98.6793,
        "meta_ra_of_asc_node": 42.079,
        "meta_arg_of_pericenter": 132.6422,
        "meta_mean_anomaly": 227.5017,
        "meta_ephemeris_type": 0,
        "meta_classification_type": "U",
        "meta_norad_cat_id": 38771,
        "meta_element_set_no": 999,
        "meta_rev_at_epoch": 68755,
        "meta_bstar": 7.891607e-05,
        "meta_mean_motion_dot": 1.29e-06,
        "meta_mean_motion_ddot": 0,
        "tle_line1": "1 38771U 12049A   25352.21321055  .00000129  00000+0  78916-4 0  9994",
        "tle_line2": "2 38771  98.6793  42.0790 0003101 132.6422 227.5017 14.21410467687552"
      },
      "geometry": {
        "type": "Point",
        "coordinates": [
          -138.0444392195569,
          -4.653411082718903
        ]
      }
    },
    {
      "type": "Feature",
      "properties": {
        "norad_id": 39216,
        "name": "INSAT-3D",
        "group": "weather",
        "lat": 1.329100871259755,
        "lon": 149.57147313787374,
        "alt_km": 35788.20445595653,
        "timestamp": "2025-12-18T19:29:52.186960+00:00",
        "meta_object_name": "INSAT-3D",
        "meta_object_id": "2013-038B",
        "meta_epoch": "2025-12-17T17:21:59.330304",
        "meta_mean_motion": 1.00267779,
        "meta_eccentricity": 0.00012009,
        "meta_inclination": 1.4572,
        "meta_ra_of_asc_node": 84.9421,
        "meta_arg_of_pericenter": 166.0293,
        "meta_mean_anomaly": 225.6028,
        "meta_ephemeris_type": 0,
        "meta_classification_type": "U",
        "meta_norad_cat_id": 39216,
        "meta_element_set_no": 999,
        "meta_rev_at_epoch": 4526,
        "meta_bstar": 0,
        "meta_mean_motion_dot": -3.16e-06,
        "meta_mean_motion_ddot": 0,
        "tle_line1": "1 39216U 13038B   25351.72360336 -.00000316  00000+0  00000+0 0  9991",
        "tle_line2": "2 39216   1.4572  84.9421 0001200 166.0293 225.6028  1.00267779 45261"
      },
      "geometry": {
        "type": "Point",
        "coordinates": [
          149.57147313787374,
          1.329100871259755
        ]
      }
    },
    {
      "type": "Feature",
      "properties": {
        "norad_id": 39260,
        "name": "FENGYUN 3C",
        "group": "weather",
        "lat": -52.365578372675365,
        "lon": -18.65266183779253,
        "alt_km": 853.428920352585,
        "timestamp": "2025-12-18T19:29:52.186972+00:00",
        "meta_object_name": "FENGYUN 3C",
        "meta_object_id": "2013-052A",
        "meta_epoch": "2025-12-18T06:10:45.863328",
        "meta_mean_motion": 14.15698078,
        "meta_eccentricity": 0.00145874,
        "meta_inclination": 98.4768,
        "meta_ra_of_asc_node": 329.6676,
        "meta_arg_of_pericenter": 179.8936,
        "meta_mean_anomaly": 180.2244,
        "meta_ephemeris_type": 0,
        "meta_classification_type": "U",
        "meta_norad_cat_id": 39260,
        "meta_element_set_no": 999,
        "meta_rev_at_epoch": 63296,
        "meta_bstar": 7.0319762e-05,
        "meta_mean_motion_dot": 9.7e-07,
        "meta_mean_motion_ddot": 0,
        "tle_line1": "1 39260U 13052A   25352.25747527  .00000097  00000+0  70320-4 0  9998",
        "tle_line2": "2 39260  98.4768 329.6676 0014587 179.8936 180.2244 14.15698078632967"
      },
      "geometry": {
        "type": "Point",
        "coordinates": [
          -18.65266183779253,
          -52.365578372675365
        ]
      }
    }
  ]
}